CCSDS_OMM_VERS = 2.0
CREATION_DATE  = 
ORIGINATOR     = 

OBJECT_NAME    = UNKNOWN
OBJECT_ID      = 
CENTER_NAME    = EARTH
REF_FRAME      = TEME
TIME_SYSTEM    = UTC
MEAN_ELEMENT_THEORY = SGP/SGP4

EPOCH          = 2025-10-19T08:30:35.082144
MEAN_MOTION    = 13.11710306
ECCENTRICITY   = .0865065
INCLINATION    = 65.8109
RA_OF_ASC_NODE = 277.1365
ARG_OF_PERICENTER = 343.7573
MEAN_ANOMALY   = 13.7239

EPHEMERIS_TYPE = 0
CLASSIFICATION_TYPE = U
NORAD_CAT_ID   = 81406
ELEMENT_SET_NO = 999
REV_AT_EPOCH   = 52654
BSTAR          = .31263E-2
MEAN_MOTION_DOT = .7793E-4
MEAN_MOTION_DDOT = 0

CCSDS_OMM_VERS = 2.0
CREATION_DATE  = 
ORIGINATOR     = 

OBJECT_NAME    = UNKNOWN
OBJECT_ID      = 
CENTER_NAME    = EARTH
REF_FRAME      = TEME
TIME_SYSTEM    = UTC
MEAN_ELEMENT_THEORY = SGP/SGP4

EPOCH          = 2025-11-12T03:15:15.100416
MEAN_MOTION    = 14.06862642
ECCENTRICITY   = .0084676
INCLINATION    = 98.7492
RA_OF_ASC_NODE = 199.2501
ARG_OF_PERICENTER = 123.8294
MEAN_ANOMALY   = 237.0971

EPHEMERIS_TYPE = 0
CLASSIFICATION_TYPE = U
NORAD_CAT_ID   = 81427
ELEMENT_SET_NO = 999
REV_AT_EPOCH   = 54746
BSTAR          = .6381E-3
MEAN_MOTION_DOT = .1056E-4
MEAN_MOTION_DDOT = 0

CCSDS_OMM_VERS = 2.0
CREATION_DATE  = 
ORIGINATOR     = 

OBJECT_NAME    = UNKNOWN
OBJECT_ID      = 
CENTER_NAME    = EARTH
REF_FRAME      = TEME
TIME_SYSTEM    = UTC
MEAN_ELEMENT_THEORY = SGP/SGP4

EPOCH          = 2025-11-11T20:59:59.757216
MEAN_MOTION    = 13.54425765
ECCENTRICITY   = .004152
INCLINATION    = 100.3085
RA_OF_ASC_NODE = 186.2548
ARG_OF_PERICENTER = 151.0177
MEAN_ANOMALY   = 209.3275

EPHEMERIS_TYPE = 0
CLASSIFICATION_TYPE = U
NORAD_CAT_ID   = 81438
ELEMENT_SET_NO = 999
REV_AT_EPOCH   = 58776
BSTAR          = .55725E-2
MEAN_MOTION_DOT = .3777E-4
MEAN_MOTION_DDOT = 0

CCSDS_OMM_VERS = 2.0
CREATION_DATE  = 
ORIGINATOR     = 

OBJECT_NAME    = UNKNOWN
OBJECT_ID      = 
CENTER_NAME    = EARTH
REF_FRAME      = TEME
TIME_SYSTEM    = UTC
MEAN_ELEMENT_THEORY = SGP/SGP4

EPOCH          = 2025-11-12T01:42:11.509056
MEAN_MOTION    = 12.62594732
ECCENTRICITY   = .0605171
INCLINATION    = 67.1592
RA_OF_ASC_NODE = 201.1008
ARG_OF_PERICENTER = 222.0037
MEAN_ANOMALY   = 133.3049

EPHEMERIS_TYPE = 0
CLASSIFICATION_TYPE = U
NORAD_CAT_ID   = 81439
ELEMENT_SET_NO = 999
REV_AT_EPOCH   = 25802
BSTAR          = .24362E-4
MEAN_MOTION_DOT = -.45E-6
MEAN_MOTION_DDOT = 0

CCSDS_OMM_VERS = 2.0
CREATION_DATE  = 
ORIGINATOR     = 

OBJECT_NAME    = UNKNOWN
OBJECT_ID      = 
CENTER_NAME    = EARTH
REF_FRAME      = TEME
TIME_SYSTEM    = UTC
MEAN_ELEMENT_THEORY = SGP/SGP4

EPOCH          = 2025-11-12T17:50:31.140672
MEAN_MOTION    = 14.94945373
ECCENTRICITY   = .0024276
INCLINATION    = 66.7937
RA_OF_ASC_NODE = 78.8487
ARG_OF_PERICENTER = 164.7010
MEAN_ANOMALY   = 195.4862

EPHEMERIS_TYPE = 0
CLASSIFICATION_TYPE = U
NORAD_CAT_ID   = 81449
ELEMENT_SET_NO = 999
REV_AT_EPOCH   = 62906
BSTAR          = .10296E-1
MEAN_MOTION_DOT = .115143E-2
MEAN_MOTION_DDOT = 0

CCSDS_OMM_VERS = 2.0
CREATION_DATE  = 
ORIGINATOR     = 

OBJECT_NAME    = UNKNOWN
OBJECT_ID      = 
CENTER_NAME    = EARTH
REF_FRAME      = TEME
TIME_SYSTEM    = UTC
MEAN_ELEMENT_THEORY = SGP/SGP4

EPOCH          = 2025-11-12T12:16:34.889088
MEAN_MOTION    = 14.27800799
ECCENTRICITY   = .014788
INCLINATION    = 98.9493
RA_OF_ASC_NODE = 227.6546
ARG_OF_PERICENTER = 85.5241
MEAN_ANOMALY   = 91.1252

EPHEMERIS_TYPE = 0
CLASSIFICATION_TYPE = U
NORAD_CAT_ID   = 81478
ELEMENT_SET_NO = 999
REV_AT_EPOCH   = 61862
BSTAR          = .38617E-2
MEAN_MOTION_DOT = .10692E-3
MEAN_MOTION_DDOT = 0

CCSDS_OMM_VERS = 2.0
CREATION_DATE  = 
ORIGINATOR     = 

OBJECT_NAME    = UNKNOWN
OBJECT_ID      = 
CENTER_NAME    = EARTH
REF_FRAME      = TEME
TIME_SYSTEM    = UTC
MEAN_ELEMENT_THEORY = SGP/SGP4

EPOCH          = 2025-11-13T02:53:28.310784
MEAN_MOTION    = 13.56502820
ECCENTRICITY   = .0045144
INCLINATION    = 100.0034
RA_OF_ASC_NODE = 189.3345
ARG_OF_PERICENTER = 73.0558
MEAN_ANOMALY   = 80.6135

EPHEMERIS_TYPE = 0
CLASSIFICATION_TYPE = U
NORAD_CAT_ID   = 81488
ELEMENT_SET_NO = 999
REV_AT_EPOCH   = 59261
BSTAR          = .69394E-3
MEAN_MOTION_DOT = .447E-5
MEAN_MOTION_DDOT = 0

CCSDS_OMM_VERS = 2.0
CREATION_DATE  = 
ORIGINATOR     = 

OBJECT_NAME    = UNKNOWN
OBJECT_ID      = 
CENTER_NAME    = EARTH
REF_FRAME      = TEME
TIME_SYSTEM    = UTC
MEAN_ELEMENT_THEORY = SGP/SGP4

EPOCH          = 2025-11-11T23:17:46.985280
MEAN_MOTION    = 13.83813727
ECCENTRICITY   = .0028357
INCLINATION    = 100.2987
RA_OF_ASC_NODE = 207.7070
ARG_OF_PERICENTER = 90.7205
MEAN_ANOMALY   = 288.0654

EPHEMERIS_TYPE = 0
CLASSIFICATION_TYPE = U
NORAD_CAT_ID   = 81497
ELEMENT_SET_NO = 999
REV_AT_EPOCH   = 21204
BSTAR          = .47978E-2
MEAN_MOTION_DOT = .5285E-4
MEAN_MOTION_DDOT = 0

CCSDS_OMM_VERS = 2.0
CREATION_DATE  = 
ORIGINATOR     = 

OBJECT_NAME    = UNKNOWN
OBJECT_ID      = 
CENTER_NAME    = EARTH
REF_FRAME      = TEME
TIME_SYSTEM    = UTC
MEAN_ELEMENT_THEORY = SGP/SGP4

EPOCH          = 2025-11-11T07:36:03.220416
MEAN_MOTION    = 14.46843980
ECCENTRICITY   = .0002266
INCLINATION    = 74.0492
RA_OF_ASC_NODE = 279.7410
ARG_OF_PERICENTER = 302.2819
MEAN_ANOMALY   = 57.8120

EPHEMERIS_TYPE = 0
CLASSIFICATION_TYPE = U
NORAD_CAT_ID   = 81499
ELEMENT_SET_NO = 999
REV_AT_EPOCH   = 47787
BSTAR          = .16159E-2
MEAN_MOTION_DOT = .5837E-4
MEAN_MOTION_DDOT = 0

CCSDS_OMM_VERS = 2.0
CREATION_DATE  = 
ORIGINATOR     = 

OBJECT_NAME    = UNKNOWN
OBJECT_ID      = 
CENTER_NAME    = EARTH
REF_FRAME      = TEME
TIME_SYSTEM    = UTC
MEAN_ELEMENT_THEORY = SGP/SGP4

EPOCH          = 2025-11-11T11:57:28.347264
MEAN_MOTION    = 14.13272307
ECCENTRICITY   = .0235023
INCLINATION    = 98.2038
RA_OF_ASC_NODE = 40.2725
ARG_OF_PERICENTER = 238.8977
MEAN_ANOMALY   = 118.8948

EPHEMERIS_TYPE = 0
CLASSIFICATION_TYPE = U
NORAD_CAT_ID   = 81535
ELEMENT_SET_NO = 999
REV_AT_EPOCH   = 38298
BSTAR          = .1097E-2
MEAN_MOTION_DOT = .2633E-4
MEAN_MOTION_DDOT = 0

CCSDS_OMM_VERS = 2.0
CREATION_DATE  = 
ORIGINATOR     = 

OBJECT_NAME    = UNKNOWN
OBJECT_ID      = 
CENTER_NAME    = EARTH
REF_FRAME      = TEME
TIME_SYSTEM    = UTC
MEAN_ELEMENT_THEORY = SGP/SGP4

EPOCH          = 2025-11-13T08:58:03.873216
MEAN_MOTION    = 12.55817573
ECCENTRICITY   = .0036182
INCLINATION    = 101.9555
RA_OF_ASC_NODE = 178.1011
ARG_OF_PERICENTER = 333.1668
MEAN_ANOMALY   = 213.0724

EPHEMERIS_TYPE = 0
CLASSIFICATION_TYPE = U
NORAD_CAT_ID   = 81536
ELEMENT_SET_NO = 999
REV_AT_EPOCH   = 54812
BSTAR          = .68292E-2
MEAN_MOTION_DOT = .1078E-4
MEAN_MOTION_DDOT = 0

CCSDS_OMM_VERS = 2.0
CREATION_DATE  = 
ORIGINATOR     = 

OBJECT_NAME    = UNKNOWN
OBJECT_ID      = 
CENTER_NAME    = EARTH
REF_FRAME      = TEME
TIME_SYSTEM    = UTC
MEAN_ELEMENT_THEORY = SGP/SGP4

EPOCH          = 2025-11-13T07:40:07.932000
MEAN_MOTION    = 14.07057809
ECCENTRICITY   = .007801
INCLINATION    = 71.0379
RA_OF_ASC_NODE = 170.1134
ARG_OF_PERICENTER = 198.2974
MEAN_ANOMALY   = 161.5336

EPHEMERIS_TYPE = 0
CLASSIFICATION_TYPE = U
NORAD_CAT_ID   = 81537
ELEMENT_SET_NO = 999
REV_AT_EPOCH   = 61632
BSTAR          = .32298E-3
MEAN_MOTION_DOT = .509E-5
MEAN_MOTION_DDOT = 0

