UNKNOWN                 
1 81406U          25292.35457271  .00007793  00000+0  31263-2 0  9995
2 81406  65.8109 277.1365 0865065 343.7573  13.7239 13.11710306526543
UNKNOWN                 
1 81427U          25316.13559144  .00001056  00000+0  63810-3 0  9993
2 81427  98.7492 199.2501 0084676 123.8294 237.0971 14.06862642547464
UNKNOWN                 
1 81438U          25315.87499719  .00003777  00000+0  55725-2 0  9993
2 81438 100.3085 186.2548 0041520 151.0177 209.3275 13.54425765587764
UNKNOWN                 
1 81439U          25316.07096654 -.00000045  00000+0  24362-4 0  9999
2 81439  67.1592 201.1008 0605171 222.0037 133.3049 12.62594732258026
UNKNOWN                 
1 81449U          25316.74341598  .00115143  00000+0  10296-1 0  9997
2 81449  66.7937  78.8487 0024276 164.7010 195.4862 14.94945373629065
UNKNOWN                 
1 81478U          25316.51151492  .00010692  00000+0  38617-2 0  9997
2 81478  98.9493 227.6546 0147880  85.5241  91.1252 14.27800799618627
UNKNOWN                 
1 81488U          25317.12046656  .00000447  00000+0  69394-3 0  9995
2 81488 100.0034 189.3345 0045144  73.0558  80.6135 13.56502820592616
UNKNOWN                 
1 81497U          25315.97068270  .00005285  00000+0  47978-2 0  9990
2 81497 100.2987 207.7070 0028357  90.7205 288.0654 13.83813727212044
UNKNOWN                 
1 81499U          25315.31670394  .00005837  00000+0  16159-2 0  9996
2 81499  74.0492 279.7410 0002266 302.2819  57.8120 14.46843980477873
UNKNOWN                 
1 81535U          25315.49824476  .00002633  00000+0  10970-2 0  9994
2 81535  98.2038  40.2725 0235023 238.8977 118.8948 14.13272307382982
UNKNOWN                 
1 81536U          25317.37365594  .00001078  00000+0  68292-2 0  9997
2 81536 101.9555 178.1011 0036182 333.1668 213.0724 12.55817573548123
UNKNOWN                 
1 81537U          25317.31953625  .00000509  00000+0  32298-3 0  9996
2 81537  71.0379 170.1134 0078010 198.2974 161.5336 14.07057809616320
